GLOBALSTAR M004         
1 25163U 98008B   24340.58654251 -.00000048  00000+0  30753-3 0  9994
2 25163  52.0007 284.7752 0002417 218.0038 313.4525 12.63380778237217
GLOBALSTAR M002         
1 25164U 98008C   24340.36381840 -.00000044  00000+0  63005-3 0  9994
2 25164  52.0041   6.1830 0001504 151.0205 209.0699 11.61506459161544
GLOBALSTAR M003         
1 25165U 98008D   24340.43457940  .00000022  00000+0  11840-2 0  9992
2 25165  51.9993 345.1257 0007887 262.8842 272.9213 12.12057749209720
GLOBALSTAR M014         
1 25306U 98023A   24340.23103737 -.00000037  00000+0  76547-3 0  9999
2 25306  51.9849 293.8194 0001451  14.3878 130.5233 11.65475772168559
GLOBALSTAR M006         
1 25307U 98023B   24340.47283056 -.00000073  00000+0  61112-4 0  9992
2 25307  51.9963 338.4408 0003607 112.9028   3.2459 11.58169897194384
GLOBALSTAR M008         
1 25309U 98023D   24340.47355789 -.00000044  00000+0  40693-3 0  9995
2 25309  51.9991  39.6749 0003074 128.5509 243.9235 12.36057739213891
